NORAD_CAT_ID,OBJECT_NAME,OBJECT_TYPE,EPOCH,MEAN_MOTION,ECCENTRICITY,INCLINATION,RA_OF_ASC_NODE,ARG_OF_PERICENTER,MEAN_ANOMALY,BSTAR,MEAN_MOTION_DOT,MEAN_MOTION_DDOT,TLE_LINE0,TLE_LINE1,TLE_LINE2,SEMIMAJOR_AXIS,PERIOD,APOGEE,PERIGEE,DECAYED
51462.0,STARLINK-3166,PAYLOAD,2022-12-07 08:28:25,15.08833792,0.0003222,53.2147,213.7805,40.1809,319.9421,-0.00015876,-2.814e-05,0.0,0 STARLINK-3166,1 51462U 22010G   22341.35307186 -.00002814  00000-0 -15876-3 0  9995,2 51462  53.2147 213.7805 0003222  40.1809 319.9421 15.08833792 47892,6917.899,95.438,541.993,537.535,0.0
51462.0,STARLINK-3166,PAYLOAD,2022-12-08 01:57:39,15.08843121,0.0003188,53.2151,210.5096,42.3121,317.8116,0.00012196,1.653e-05,0.0,0 STARLINK-3166,1 51462U 22010G   22342.08171051  .00001653  00000-0  12196-3 0  9996,2 51462  53.2151 210.5096 0003188  42.3121 317.8116 15.08843121 48005,6917.871,95.437,541.941,537.53,0.0
51462.0,STARLINK-3166,PAYLOAD,2022-12-08 08:19:11,15.08850928,0.0003103,53.2148,209.3208,42.3605,317.7626,0.00024991,3.692e-05,0.0,0 STARLINK-3166,1 51462U 22010G   22342.34666595  .00003692  00000-0  24991-3 0  9998,2 51462  53.2148 209.3208 0003103  42.3605 317.7626 15.08850928 47575,6917.847,95.437,541.859,537.565,0.0
51462.0,STARLINK-3166,PAYLOAD,2022-12-09 00:13:02,15.08851471,0.0002908,53.215,206.3493,46.9252,313.1983,4.5592e-06,-2.16e-06,0.0,0 STARLINK-3166,1 51462U 22010G   22343.00906236 -.00000216  00000-0  45592-5 0  9993,2 51462  53.2150 206.3493 0002908  46.9252 313.1983 15.08851471 47672,6917.845,95.437,541.722,537.6990000000002,0.0
51462.0,STARLINK-3166,PAYLOAD,2022-12-09 19:17:41,15.08828636,0.0002991,53.2148,202.7788,38.4297,321.6908,-7.5539e-05,-1.49e-05,0.0,0 STARLINK-3166,1 51462U 22010G   22343.80395798 -.00001490  00000-0 -75539-4 0  9995,2 51462  53.2148 202.7788 0002991  38.4297 321.6908 15.08828636 48267,6917.915,95.438,541.849,537.711,0.0
51462.0,STARLINK-3166,PAYLOAD,2022-12-09 20:53:04,15.08832878,0.0002605,53.2146,202.4779,40.3614,319.7571,-0.00013123,-2.376e-05,0.0,0 STARLINK-3166,1 51462U 22010G   22343.87019203 -.00002376  00000-0 -13123-3 0  9990,2 51462  53.2146 202.4779 0002605  40.3614 319.7571 15.08832878 48277,6917.901999999999,95.438,541.569,537.965,0.0
51462.0,STARLINK-3166,PAYLOAD,2022-12-10 03:14:37,15.08823647,0.0002849,53.214,201.2911,38.942,321.1777,-0.00021343,-3.682e-05,0.0,0 STARLINK-3166,1 51462U 22010G   22344.13515905 -.00003682  00000-0 -21343-3 0  9994,2 51462  53.2140 201.2911 0002849  38.9420 321.1777 15.08823647 48318,6917.93,95.439,541.766,537.8240000000002,0.0
51462.0,STARLINK-3166,PAYLOAD,2022-12-10 19:08:29,15.08827187,0.0002515,53.2144,198.3184,33.3328,326.7822,0.00014689,2.049e-05,0.0,0 STARLINK-3166,1 51462U 22010G   22344.79756555  .00002049  00000-0  14689-3 0  9993,2 51462  53.2144 198.3184 0002515  33.3328 326.7822 15.08827187 47949,6917.92,95.438,541.524,538.045,0.0
51462.0,STARLINK-3166,PAYLOAD,2022-12-11 01:30:02,15.08832928,0.0002957,53.2142,197.1284,43.6869,316.4356,9.4635e-05,1.218e-05,0.0,0 STARLINK-3166,1 51462U 22010G   22345.06252618  .00001218  00000-0  94635-4 0  9992,2 51462  53.2142 197.1284 0002957  43.6869 316.4356 15.08832928 48453,6917.901999999999,95.438,541.813,537.721,0.0
51462.0,STARLINK-3166,PAYLOAD,2022-12-11 20:34:40,15.08841139,0.0003097,53.2139,193.5603,42.6341,317.4891,0.00043801,6.69e-05,0.0,0 STARLINK-3166,1 51462U 22010G   22345.85740973  .00006690  00000-0  43801-3 0  9992,2 51462  53.2139 193.5603 0003097  42.6341 317.4891 15.08841139 48105,6917.877,95.437,541.884,537.599,0.0
51462.0,STARLINK-3166,PAYLOAD,2022-12-12 09:17:44,15.08853832,0.0003135,53.2138,191.1811,43.6824,316.4415,0.00050989,7.839e-05,0.0,0 STARLINK-3166,1 51462U 22010G   22346.38732532  .00007839  00000-0  50989-3 0  9994,2 51462  53.2138 191.1811 0003135  43.6824 316.4415 15.08853832 48653,6917.8380000000025,95.437,541.872,537.534,0.0
51462.0,STARLINK-3166,PAYLOAD,2022-12-12 15:39:17,15.08856726,0.0003158,53.2138,189.9914,44.2781,315.8464,0.0004273,6.522e-05,0.0,0 STARLINK-3166,1 51462U 22010G   22346.65228250  .00006522  00000-0  42730-3 0  9994,2 51462  53.2138 189.9914 0003158  44.2781 315.8464 15.08856726 48221,6917.829000000002,95.436,541.879,537.51,0.0
51462.0,STARLINK-3166,PAYLOAD,2022-12-12 23:36:13,15.08838772,0.0002967,53.214,188.5045,42.8463,317.276,-3.6582e-05,-8.71e-06,0.0,0 STARLINK-3166,1 51462U 22010G   22346.98348781 -.00000871  00000-0 -36582-4 0  9994,2 51462  53.2140 188.5045 0002967  42.8463 317.2760 15.08838772 48745,6917.884,95.438,541.802,537.697,0.0
51462.0,STARLINK-3166,PAYLOAD,2022-12-13 13:54:41,15.08836113,0.0003026,53.2143,185.828,44.7851,315.3385,-5.7062e-06,-3.79e-06,0.0,0 STARLINK-3166,1 51462U 22010G   22347.57965109 -.00000379  00000-0 -57062-5 0  9999,2 51462  53.2143 185.8280 0003026  44.7851 315.3385 15.08836113 48365,6917.892,95.438,541.851,537.664,0.0
51462.0,STARLINK-3166,PAYLOAD,2022-12-14 05:48:33,15.08841417,0.0003086,53.2143,182.8547,45.2844,314.8399,3.1951999999999995e-05,2.2e-06,0.0,0 STARLINK-3166,1 51462U 22010G   22348.24204950  .00000220  00000-0  31952-4 0  9996,2 51462  53.2143 182.8547 0003086  45.2844 314.8399 15.08841417 48937,6917.876,95.437,541.876,537.606,0.0
51462.0,STARLINK-3166,PAYLOAD,2022-12-14 20:07:01,15.08840808,0.0003125,53.2144,180.1784,46.707,313.4182,0.00012135,1.643e-05,0.0,0 STARLINK-3166,1 51462U 22010G   22348.83821018  .00001643  00000-0  12135-3 0  9992,2 51462  53.2144 180.1784 0003125  46.7070 313.4182 15.08840808 48559,6917.878000000002,95.438,541.905,537.581,0.0
51462.0,STARLINK-3166,PAYLOAD,2022-12-15 13:36:15,15.08850024,0.000324,53.2142,176.9073,49.9508,310.1768,0.00020801,3.024e-05,0.0,0 STARLINK-3166,1 51462U 22010G   22349.56684506  .00003024  00000-0  20801-3 0  9996,2 51462  53.2142 176.9073 0003240  49.9508 310.1768 15.08850024 49130,6917.85,95.437,541.956,537.4730000000002,0.0
51462.0,STARLINK-3166,PAYLOAD,2022-12-15 19:57:48,15.08845279,0.0003265,53.2141,175.718,49.9257,310.2021,0.00012208,1.655e-05,0.0,0 STARLINK-3166,1 51462U 22010G   22349.83180661  .00001655  00000-0  12208-3 0  9999,2 51462  53.2141 175.7180 0003265  49.9257 310.2021 15.08845279 48704,6917.864000000001,95.437,541.988,537.471,0.0
51462.0,STARLINK-3166,PAYLOAD,2022-12-15 23:08:34,15.08841268,0.0003215,53.2142,175.1232,50.0503,310.0771,-1.0714e-05,-4.59e-06,0.0,0 STARLINK-3166,1 51462U 22010G   22349.96428691 -.00000459  00000-0 -10714-4 0  9995,2 51462  53.2142 175.1232 0003215  50.0503 310.0771 15.08841268 49197,6917.877,95.437,541.966,537.5169999999998,0.0
51462.0,STARLINK-3166,PAYLOAD,2022-12-16 13:27:02,15.08843486,0.0003207,53.2142,172.4466,50.1009,310.0265,3.3106e-05,2.38e-06,0.0,0 STARLINK-3166,1 51462U 22010G   22350.56044519  .00000238  00000-0  33106-4 0  9999,2 51462  53.2142 172.4466 0003207  50.1009 310.0265 15.08843486 48819,6917.87,95.437,541.953,537.516,0.0
51462.0,STARLINK-3166,PAYLOAD,2022-12-16 19:48:34,15.08845874,0.000322,53.2141,171.2572,51.019,309.1089,8.5606e-05,1.074e-05,0.0,0 STARLINK-3166,1 51462U 22010G   22350.82540407  .00001074  00000-0  85606-4 0  9996,2 51462  53.2141 171.2572 0003220  51.0190 309.1089 15.08845874 48859,6917.861999999999,95.437,541.955,537.5,0.0
51462.0,STARLINK-3166,PAYLOAD,2022-12-17 10:07:02,15.08847937,0.0003275,53.214,168.5811,51.8722,308.2565,0.00022243,3.254e-05,0.0,0 STARLINK-3166,1 51462U 22010G   22351.42156248  .00003254  00000-0  22243-3 0  9998,2 51462  53.2140 168.5811 0003275  51.8722 308.2565 15.08847937 49416,6917.856,95.437,541.987,537.456,0.0
51462.0,STARLINK-3166,PAYLOAD,2022-12-17 11:42:26,15.08845138,0.0003311,53.214,168.2838,48.5124,311.6152,0.00017233,2.456e-05,0.0,0 STARLINK-3166,1 51462U 22010G   22351.48780390  .00002456  00000-0  17233-3 0  9991,2 51462  53.2140 168.2838 0003311  48.5124 311.6152 15.08845138 48951,6917.865,95.437,542.02,537.439,0.0
51462.0,STARLINK-3166,PAYLOAD,2022-12-17 18:03:59,15.08834203,0.000323,53.2138,167.09400000000005,50.5721,309.5557,-3.7918e-05,-8.92e-06,0.0,0 STARLINK-3166,1 51462U 22010G   22351.75276785 -.00000892  00000-0 -37918-4 0  9996,2 51462  53.2138 167.0940 0003230  50.5721 309.5557 15.08834203 49468,6917.898,95.438,541.998,537.529,0.0
51462.0,STARLINK-3166,PAYLOAD,2022-12-17 19:39:22,15.08833981,0.0003231,53.2138,166.7967,50.5196,309.6081,-2.6178e-05,-7.05e-06,0.0,0 STARLINK-3166,1 51462U 22010G   22351.81900835 -.00000705  00000-0 -26178-4 0  9992,2 51462  53.2138 166.7967 0003231  50.5196 309.6081 15.08833981 49005,6917.899,95.438,541.999,537.529,0.0
51462.0,STARLINK-3166,PAYLOAD,2022-12-18 11:33:13,15.08835664,0.0003237,53.2138,163.8228,52.7569,307.3718,0.00011628,1.562e-05,0.0,0 STARLINK-3166,1 51462U 22010G   22352.48141169  .00001562  00000-0  11628-3 0  9996,2 51462  53.2138 163.8228 0003237  52.7569 307.3718 15.08835664 49100,6917.894,95.438,541.998,537.519,0.0
51462.0,STARLINK-3166,PAYLOAD,2022-12-18 21:05:32,15.08838304,0.0003258,53.2137,162.0384,53.2618,306.8672,0.00022258,3.256e-05,0.0,0 STARLINK-3166,1 51462U 22010G   22352.87885296  .00003256  00000-0  22258-3 0  9998,2 51462  53.2137 162.0384 0003258  53.2618 306.8672 15.08838304 49160,6917.886,95.438,542.004,537.497,0.0
51462.0,STARLINK-3166,PAYLOAD,2022-12-19 06:37:51,15.08841168,0.0003291,53.2136,160.2541,53.678,306.4516,0.00032153,4.833e-05,0.0,0 STARLINK-3166,1 51462U 22010G   22353.27629412  .00004833  00000-0  32153-3 0  9996,2 51462  53.2136 160.2541 0003291  53.6780 306.4516 15.08841168 49227,6917.877,95.437,542.018,537.465,0.0
51462.0,STARLINK-3166,PAYLOAD,2022-12-19 17:45:33,15.088487400000002,0.00033,53.2138,158.1724,54.7065,305.4235,0.00038274,5.81e-05,0.0,0 STARLINK-3166,1 51462U 22010G   22353.73997202  .00005810  00000-0  38274-3 0  9998,2 51462  53.2138 158.1724 0003300  54.7065 305.4235 15.08848740 49294,6917.854,95.437,542.002,537.436,0.0
